SKYNET 4C               
1 20776U 90079A   26162.20198485  .00000132  00000+0  00000+0 0  9995
2 20776  13.3423 349.8525 0002401  96.2300 279.5546  1.00274124130837
TDRS 5                  
1 21639U 91054B   26164.72873517  .00000084  00000+0  00000+0 0  9999
2 21639  14.0717 353.8044 0006413 274.5651  88.3161  1.00272741127689
TDRS 6                  
1 22314U 93003B   26164.39641450 -.00000295  00000+0  00000+0 0  9993
2 22314  14.1828 357.0888 0007732 178.0180 183.5105  1.00272769122373
UFO 2 (USA 95)          
1 22787U 93056A   26164.83378244  .00000125  00000+0  00000+0 0  9993
2 22787  11.8937   3.5752 0006019   7.7475 219.6242  1.00275128118513
USA 99 (MILSTAR-1 1)    
1 22988U 94009A   26164.83510830 -.00000101  00000+0  00000+0 0  9999
2 22988  17.6218  27.7409 0001122 215.0934 343.6443  0.98722191 32916
UFO 4 (USA 108)         
1 23467U 95003A   26164.79604821 -.00000021  00000+0  00000+0 0  9997
2 23467   9.6988  13.2436 0003164  62.8852 284.7222  1.00272040114917
USA 115 (MILSTAR-1 2)   
1 23712U 95060A   26164.52914007 -.00000185  00000+0  00000+0 0  9995
2 23712  14.0716   3.7757 0001561 143.1588 209.9631  1.00364783 32847
INMARSAT 3-F1           
1 23839U 96020A   26164.36550014 -.00000140  00000+0  00000+0 0  9999
2 23839  10.5935  46.6712 0003729  45.4436 210.0122  0.99979221110214
INMARSAT 3-F2           
1 24307U 96053A   26164.50682932 -.00000229  00000+0  00000+0 0  9995
2 24307   9.8492  53.9754 0006753  26.7081 156.5264  1.00003798108880
INMARSAT 3-F3           
1 24674U 96070A   26164.80600199  .00000134  00000+0  00000+0 0  9993
2 24674  10.3113  49.6870 0003435  21.5651 167.0726  0.99980849107871
AMC-3                   
1 24936U 97050A   26164.41951209  .00000062  00000+0  00000+0 0  9991
2 24936   8.1549  64.0259 0004044  26.0063 208.7908  0.99060908 52392
USA 134                 
1 25019U 97065A   26164.59802929 -.00000063  00000+0  00000+0 0  9995
2 25019  12.7798  21.7493 0003315 335.7977   7.4101  1.00269238 32911
INMARSAT 3-F5           
1 25153U 98006B   26164.12406229 -.00000287  00000+0  00000+0 0  9990
2 25153   9.6840  53.2993 0004429  25.6664 173.1600  1.00269237103859
ASIASTAR                
1 26107U 00016A   26164.69350332 -.00000331  00000+0  00000+0 0  9999
2 26107   9.1213  58.1903 0004387  25.3553 173.1405  1.00270425 95887
USA 149 (DSP 20)        
1 26356U 00024A   26164.80038155  .00000093  00000+0  00000+0 0  9997
2 26356  13.1680  11.8764 0001841 305.0381  67.9257  1.00273213 32880
TDRS 8                  
1 26388U 00034A   26164.67431323 -.00000193  00000+0  00000+0 0  9994
2 26388  12.6783  31.3532 0004760  15.9646 182.0814  1.00267848 95140
USA 153                 
1 26575U 00065A   26164.50336264 -.00000323  00000+0  00000+0 0  9991
2 26575  11.6183  35.4527 0003047  47.2042 134.8775  1.00270264 32895
AMC-6                   
1 26580U 00067A   26164.73514854  .00000099  00000+0  00000+0 0  9996
2 26580   0.1435  83.0732 0003438  11.1246 297.4629  1.00272139 93851
USA 157 (MILSTAR-2 2)   
1 26715U 01009A   26164.73220186  .00000110  00000+0  00000+0 0  9999
2 26715  11.5389  19.7856 0039356 177.5877 178.1839  1.00273074 32909
INTELSAT 902 (IS-902)   
1 26900U 01039A   26164.68067677 -.00000277  00000+0  00000+0 0  9991
2 26900   6.1088  71.8271 0004503   6.9820  18.1229  1.00271249 90665
USA 164 (MILSTAR-2 3)   
1 27168U 02001A   26164.74139935  .00000099  00000+0  00000+0 0  9993
2 27168  11.1754  21.9281 0098958   8.3054 157.7242  1.00276159 32922
INTELSAT 904 (IS-904)   
1 27380U 02007A   26164.05027513 -.00000218  00000+0  00000+0 0  9991
2 27380   6.9094  69.2332 0006504   3.3250 175.4234  1.00271515 51726
INTELSAT 905 (IS-905)   
1 27438U 02027A   26164.46836434  .00000100  00000+0  00000+0 0  9991
2 27438   6.7440  69.8438 0003808  20.0607 203.2730  1.00271998 51324
